NORAD_CAT_ID,OBJECT_NAME,OBJECT_TYPE,EPOCH,MEAN_MOTION,ECCENTRICITY,INCLINATION,RA_OF_ASC_NODE,ARG_OF_PERICENTER,MEAN_ANOMALY,BSTAR,MEAN_MOTION_DOT,MEAN_MOTION_DDOT,TLE_LINE0,TLE_LINE1,TLE_LINE2,SEMIMAJOR_AXIS,PERIOD,APOGEE,PERIGEE,DECAYED
53432.0,STARLINK-4557,PAYLOAD,2023-11-27 00:50:29,15.08824325,0.0001664,53.2171,246.3023,100.4904,259.6276,-0.00034034,-5.698e-05,0.0,0 STARLINK-4557,1 53432U 22097AW  23331.03506198 -.00005698  00000-0 -34034-3 0  9998,2 53432  53.2171 246.3023 0001664 100.4904 259.6276 15.08824325 72939,6917.928,95.439,540.944,538.642,0.0
53432.0,STARLINK-4557,PAYLOAD,2023-11-28 00:41:16,15.08855895,0.0001812,53.2178,241.8391,94.9362,265.1837,0.00071419,0.00011101,0.0,0 STARLINK-4557,1 53432U 22097AW  23332.02865802  .00011101  00000-0  71419-3 0  9990,2 53432  53.2178 241.8391 0001812  94.9362 265.1837 15.08855895 72609,6917.832,95.437,540.95,538.443,0.0
53432.0,STARLINK-4557,PAYLOAD,2023-11-28 03:52:02,15.0885586,0.0001817,53.2178,241.2448,89.7323,270.3878,0.00075924,0.00011821,0.0,0 STARLINK-4557,1 53432U 22097AW  23332.16113853  .00011821  00000-0  75924-3 0  9991,2 53432  53.2178 241.2448 0001817  89.7323 270.3878 15.08855860 73101,6917.832,95.437,540.954,538.44,0.0
53432.0,STARLINK-4557,PAYLOAD,2023-11-28 22:56:39,15.08853309,0.0001784,53.2166,237.6751,110.6055,249.5129,0.00035833,5.421e-05,0.0,0 STARLINK-4557,1 53432U 22097AW  23332.95601669  .00005421  00000-0  35833-3 0  9999,2 53432  53.2166 237.6751 0001784 110.6055 249.5129 15.08853309 73229,6917.84,95.437,540.939,538.471,0.0
53432.0,STARLINK-4557,PAYLOAD,2023-11-29 03:42:49,15.08857877,0.0001738,53.2172,236.785,102.9708,257.1478,0.00044969,6.879e-05,0.0,0 STARLINK-4557,1 53432U 22097AW  23333.15473518  .00006879  00000-0  44969-3 0  9990,2 53432  53.2172 236.7850 0001738 102.9708 257.1478 15.08857877 72779,6917.826,95.436,540.893,538.488,0.0
53432.0,STARLINK-4557,PAYLOAD,2023-11-30 00:22:50,15.08846433,0.0001845,53.2161,232.9209,111.0171,249.1018,0.00044654,6.827e-05,0.0,0 STARLINK-4557,1 53432U 22097AW  23334.01585677  .00006827  00000-0  44654-3 0  9990,2 53432  53.2161 232.9209 0001845 111.0171 249.1018 15.08846433 72909,6917.861,95.437,541.002,538.449,0.0
53432.0,STARLINK-4557,PAYLOAD,2023-12-01 03:24:24,15.0883669,0.0001533,53.2156,227.8659,100.9673,259.1492,0.00039135,5.945e-05,0.0,0 STARLINK-4557,1 53432U 22097AW  23335.14194475  .00005945  00000-0  39135-3 0  9995,2 53432  53.2156 227.8659 0001533 100.9673 259.1492 15.08836690 73073,6917.891,95.438,540.816,538.695,0.0
53432.0,STARLINK-4557,PAYLOAD,2023-12-01 22:29:01,15.08855128,0.000212,53.2155,224.3003,126.7438,233.3749,0.00079519,0.00012395,0.0,0 STARLINK-4557,1 53432U 22097AW  23335.93682032  .00012395  00000-0  79519-3 0  9990,2 53432  53.2155 224.3003 0002120 126.7438 233.3749 15.08855128 73677,6917.834,95.437,541.166,538.233,0.0
53432.0,STARLINK-4557,PAYLOAD,2023-12-02 03:15:10,15.08881048,0.0001786,53.2155,223.4024,72.6915,287.4273,0.0018115,0.00028692,0.0,0 STARLINK-4557,1 53432U 22097AW  23336.13553938  .00028692  00000-0  18115-2 0  9996,2 53432  53.2155 223.4024 0001786  72.6915 287.4273 15.08881048 73229,6917.755,95.435,540.855,538.384,0.0
53432.0,STARLINK-4557,PAYLOAD,2023-12-02 22:19:49,15.08824369,0.0001635,53.2151,219.8384,122.332,237.7831,-0.00034419,-5.759e-05,0.0,0 STARLINK-4557,1 53432U 22097AW  23336.93042825 -.00005759  00000-0 -34419-3 0  9999,2 53432  53.2151 219.8384 0001635 122.3320 237.7831 15.08824369 73826,6917.928,95.439,540.924,538.662,0.0
53432.0,STARLINK-4557,PAYLOAD,2023-12-03 01:30:35,15.08819984,0.0001393,53.2147,219.2456,84.7943,275.3208,-0.00029955,-5.049e-05,0.0,0 STARLINK-4557,1 53432U 22097AW  23337.06291429 -.00005049  00000-0 -29955-3 0  9991,2 53432  53.2147 219.2456 0001393  84.7943 275.3208 15.08819984 73360,6917.942,95.439,540.77,538.843,0.0
53432.0,STARLINK-4557,PAYLOAD,2023-12-03 20:35:13,15.0883636,0.00012,53.2134,215.6804,93.8616,266.2513,0.00023794,3.501e-05,0.0,0 STARLINK-4557,1 53432U 22097AW  23337.85779740  .00003501  00000-0  23794-3 0  9999,2 53432  53.2134 215.6804 0001200  93.8616 266.2513 15.08836360 73486,6917.892,95.438,540.587,538.926,0.0
53432.0,STARLINK-4557,PAYLOAD,2023-12-04 01:21:23,15.08835914,0.0001912,53.2154,214.7808,60.7201,299.3982,0.00076515,0.00011909,0.0,0 STARLINK-4557,1 53432U 22097AW  23338.05652238  .00011909  00000-0  76515-3 0  9994,2 53432  53.2154 214.7808 0001912  60.7201 299.3982 15.08835914 73992,6917.893,95.438,541.081,538.435,0.0
53432.0,STARLINK-4557,PAYLOAD,2023-12-05 01:12:09,15.08858088,0.0001779,53.2149,210.3248,59.9044,300.2124,0.00032582,4.904e-05,0.0,0 STARLINK-4557,1 53432U 22097AW  23339.05011173  .00004904  00000-0  32582-3 0  9995,2 53432  53.2149 210.3248 0001779  59.9044 300.2124 15.08858088 73663,6917.825,95.436,540.921,538.459,0.0
53432.0,STARLINK-4557,PAYLOAD,2023-12-06 01:02:56,15.08850448,0.000192,53.2157,205.8669,55.383,304.7343,5.5572e-05,5.97e-06,0.0,0 STARLINK-4557,1 53432U 22097AW  23340.04370685  .00000597  00000-0  55572-4 0  9991,2 53432  53.2157 205.8669 0001920  55.3830 304.7343 15.08850448 73810,6917.848,95.437,541.042,538.385,0.0
53432.0,STARLINK-4557,PAYLOAD,2023-12-07 15:12:11,15.08838243,0.0001269,53.2143,198.7257,79.7444,280.3691,-5.5652e-05,-1.173e-05,0.0,0 STARLINK-4557,1 53432U 22097AW  23341.63346770 -.00001173  00000-0 -55652-4 0  9997,2 53432  53.2143 198.7257 0001269  79.7444 280.3691 15.08838243 74539,6917.886,95.438,540.629,538.873,0.0
53432.0,STARLINK-4557,PAYLOAD,2023-12-08 15:02:58,15.08838974,0.000124,53.2156,194.2664,78.2488,281.8644,1.9533e-05,2.3e-07,0.0,0 STARLINK-4557,1 53432U 22097AW  23342.62707128  .00000023  00000-0  19533-4 0  9994,2 53432  53.2156 194.2664 0001240  78.2488 281.8644 15.08838974 74688,6917.884,95.438,540.606,538.891,0.0
53432.0,STARLINK-4557,PAYLOAD,2023-12-10 00:26:05,15.08834181,0.0001825,53.2155,188.021,101.5718,258.5479,2.9531e-05,1.82e-06,0.0,0 STARLINK-4557,1 53432U 22097AW  23344.01811665  .00000182  00000-0  29531-4 0  9996,2 53432  53.2155 188.0210 0001825 101.5718 258.5479 15.08834181 74414,6917.898,95.438,541.026,538.501,0.0
53432.0,STARLINK-4557,PAYLOAD,2023-12-10 21:06:05,15.08840977,0.0001476,53.2154,184.1551,84.0223,276.0937,6.0723e-05,6.79e-06,0.0,0 STARLINK-4557,1 53432U 22097AW  23344.87923281  .00000679  00000-0  60723-4 0  9997,2 53432  53.2154 184.1551 0001476  84.0223 276.0937 15.08840977 75028,6917.877,95.437,540.763,538.721,0.0
53432.0,STARLINK-4557,PAYLOAD,2023-12-11 19:21:29,15.08840406,0.000161,53.2158,179.9912,75.6635,284.4536,4.4362e-05,4.18e-06,0.0,0 STARLINK-4557,1 53432U 22097AW  23345.80659588  .00000418  00000-0  44362-4 0  9999,2 53432  53.2158 179.9912 0001610  75.6635 284.4536 15.08840406 75168,6917.879,95.438,540.858,538.63,0.0
53432.0,STARLINK-4557,PAYLOAD,2023-12-12 19:12:16,15.08842169,0.0001573,53.2157,175.5305,77.8869,282.23,3.6881e-05,2.99e-06,0.0,0 STARLINK-4557,1 53432U 22097AW  23346.80019401  .00000299  00000-0  36881-4 0  9998,2 53432  53.2157 175.5305 0001573  77.8869 282.2300 15.08842169 75316,6917.874,95.437,540.827,538.651,0.0
53432.0,STARLINK-4557,PAYLOAD,2023-12-13 19:03:03,15.08844341,0.0001475,53.2157,171.07,97.1998,262.9161,5.9988e-05,6.67e-06,0.0,0 STARLINK-4557,1 53432U 22097AW  23347.79378883  .00000667  00000-0  59988-4 0  9991,2 53432  53.2157 171.0700 0001475  97.1998 262.9161 15.08844341 74981,6917.867,95.437,540.753,538.712,0.0
53432.0,STARLINK-4557,PAYLOAD,2023-12-14 18:53:51,15.08836261,0.0001515,53.2165,166.6063,99.8183,260.2981,-1.5325e-05,-5.32e-06,0.0,0 STARLINK-4557,1 53432U 22097AW  23348.78739624 -.00000532  00000-0 -15325-4 0  9995,2 53432  53.2165 166.6063 0001515  99.8183 260.2981 15.08836261 75133,6917.892,95.438,540.805,538.709,0.0
53432.0,STARLINK-4557,PAYLOAD,2023-12-15 18:44:38,15.08834907,0.0001447,53.2161,162.1473,99.4828,260.6328,-1.282e-05,-4.92e-06,0.0,0 STARLINK-4557,1 53432U 22097AW  23349.78099942 -.00000492  00000-0 -12820-4 0  9990,2 53432  53.2161 162.1473 0001447  99.4828 260.6328 15.08834907 75764,6917.896,95.438,540.762,538.76,0.0
53432.0,STARLINK-4557,PAYLOAD,2023-12-16 17:00:02,15.08838375,0.000135,53.2161,157.9845,97.3185,262.796,8.4833e-05,1.062e-05,0.0,0 STARLINK-4557,1 53432U 22097AW  23350.70835690  .00001062  00000-0  84833-4 0  9997,2 53432  53.2161 157.9845 0001350  97.3185 262.7960 15.08838375 75426,6917.885,95.438,540.684,538.816,0.0
53432.0,STARLINK-4557,PAYLOAD,2023-12-17 18:26:12,15.08841279,0.0001289,53.216,153.2273,91.9957,268.1183,8.0225e-05,9.89e-06,0.0,0 STARLINK-4557,1 53432U 22097AW  23351.76819755  .00000989  00000-0  80225-4 0  9996,2 53432  53.2160 153.2273 0001289  91.9957 268.1183 15.08841279 75588,6917.876,95.437,540.633,538.85,0.0
53432.0,STARLINK-4557,PAYLOAD,2023-12-18 15:06:12,15.08843106,0.0001316,53.2162,149.3613,91.5551,268.5591,7.1328e-05,8.48e-06,0.0,0 STARLINK-4557,1 53432U 22097AW  23352.62931585  .00000848  00000-0  71328-4 0  9996,2 53432  53.2162 149.3613 0001316  91.5551 268.5591 15.08843106 76197,6917.871,95.437,540.646,538.826,0.0
53432.0,STARLINK-4557,PAYLOAD,2023-12-19 16:32:23,15.08842586,0.0001312,53.2163,144.6076,92.7561,267.3582,3.5071e-05,2.7e-06,0.0,0 STARLINK-4557,1 53432U 22097AW  23353.68915675  .00000270  00000-0  35071-4 0  9999,2 53432  53.2163 144.6076 0001312  92.7561 267.3582 15.08842586 75871,6917.872,95.437,540.645,538.83,0.0
53432.0,STARLINK-4557,PAYLOAD,2023-12-20 13:12:24,15.08837041,0.0001223,53.2189,140.7342,74.2565,285.8562,2.2781e-05,7.5e-07,0.0,0 STARLINK-4557,1 53432U 22097AW  23354.55028073  .00000075  00000-0  22781-4 0  9990,2 53432  53.2189 140.7342 0001223  74.2565 285.8562 15.08837041 76483,6917.889,95.438,540.6,538.908,0.0
53432.0,STARLINK-4557,PAYLOAD,2023-12-20 16:23:10,15.0883911,0.000152,53.216,140.1453,62.4298,297.6848,3.7966e-05,3.16e-06,0.0,0 STARLINK-4557,1 53432U 22097AW  23354.68276045  .00000316  00000-0  37966-4 0  9997,2 53432  53.2160 140.1453 0001520  62.4298 297.6848 15.08839110 76028,6917.883,95.438,540.8,538.697,0.0
